Results
*******************************************************************************
 Revised: Jan 26, 2022              Phoebe / (Saturn)                       609
                          http://ssd.jpl.nasa.gov/?sat_phys_par
                            http://ssd.jpl.nasa.gov/?sat_elem

 SATELLITE PHYSICAL PROPERTIES:
  Radius (km)            = 106.6    +- 1.1    Density (g/cm^3)=  1.633 +- 0.049
  Mass (10^19 kg)        =   0.8289           Geometric Albedo=  0.081 +- 0.002
  GM (km^3/s^2)          =   0.5548 +- 0.0006 V(1,0)          = +1.5 (.7-2.5) 

 SATELLITE ORBITAL DATA (mean values with respect to local Laplace plane):
  Semi-major axis, a (km)= 12947.78(10^3)     Orbital period    = 550.31 d
  Eccentricity, e        =     0.1635         Rotational period = Synchronous
  Inclination, i  (deg)  =   175.986
*******************************************************************************


*******************************************************************************
Ephemeris / API_USER Thu Nov 20 23:31:15 2025 Pasadena, USA      / Horizons    
*******************************************************************************
Target body name: Phoebe (609)                    {source: sat441l}
Center body name: Earth (399)                     {source: DE441}
Center-site name: GEOCENTRIC
*******************************************************************************
Start time      : A.D. 2020-Jan-01 00:00:00.0000 UT      
Stop  time      : A.D. 2020-Dec-20 00:00:00.0000 UT      
Step-size       : 1440 minutes
*******************************************************************************
Target pole/equ : IAU_PHOEBE                      {West-longitude positive}
Target radii    : 109.4, 108.5, 101.8 km          {Equator_a, b, pole_c}       
Center geodetic : 0.0, 0.0, -6378.137             {E-lon(deg),Lat(deg),Alt(km)}
Center cylindric: 0.0, 0.0, 0.0                   {E-lon(deg),Dxy(km),Dz(km)}
Center pole/equ : ITRF93                          {East-longitude positive}
Center radii    : 6378.137, 6378.137, 6356.752 km {Equator_a, b, pole_c}       
Target primary  : Saturn
Vis. interferer : MOON (R_eq= 1737.400) km        {source: DE441}
Rel. light bend : Sun                             {source: DE441}
Rel. lght bnd GM: 1.3271E+11 km^3/s^2                                          
Atmos refraction: NO (AIRLESS)
RA format       : HMS
Time format     : CAL 
Calendar mode   : Mixed Julian/Gregorian
EOP file        : eop.251120.p260216                                           
EOP coverage    : DATA-BASED 1962-JAN-20 TO 2025-NOV-20. PREDICTS-> 2026-FEB-15
Units conversion: 1 au= 149597870.700 km, c= 299792.458 km/s, 1 day= 86400.0 s 
Table cut-offs 1: Elevation (-90.0deg=NO ),Airmass (>38.000=NO), Daylight (NO )
Table cut-offs 2: Solar elongation (  0.0,180.0=NO ),Local Hour Angle( 0.0=NO )
Table cut-offs 3: RA/DEC angular rate (     0.0=NO )                           
**************************************************************************************************************************
 Date__(UT)__HR:MN     R.A._____(ICRF)_____DEC    APmag   S-brt             delta      deldot     S-O-T /r     S-T-O  Cnst
**************************************************************************************************************************
$$SOE
 2020-Aug-04 00:00     19 59 36.87 -20 55 02.7   16.603   8.943  9.07545942770172   8.1311918  165.9567 /T    1.3960   Sgr
 2020-Aug-05 00:00     19 59 18.17 -20 55 59.5   16.604   8.943  9.08029674606259   8.6196743  164.9253 /T    1.4965   Sgr
 2020-Aug-06 00:00     19 58 59.59 -20 56 55.7   16.606   8.943  9.08541549902509   9.1057623  163.8941 /T    1.5963   Sgr
 2020-Aug-07 00:00     19 58 41.13 -20 57 51.3   16.607   8.943  9.09081427686506   9.5893587  162.8631 /T    1.6956   Sgr
 2020-Aug-08 00:00     19 58 22.81 -20 58 46.4   16.608   8.944  9.09649160679277  10.0703428  161.8323 /T    1.7943   Sgr
 2020-Aug-09 00:00     19 58 04.64 -20 59 40.8   16.610   8.944  9.10244594065081  10.5485750  160.8017 /T    1.8924   Sgr
 2020-Aug-10 00:00     19 57 46.62 -21 00 34.6   16.612   8.944  9.10867564539102  11.0239018  159.7713 /T    1.9897   Sgr
 2020-Aug-11 00:00     19 57 28.76 -21 01 27.8   16.613   8.944  9.11517899605279  11.4961591  158.7413 /T    2.0864   Sgr
 2020-Aug-12 00:00     19 57 11.07 -21 02 20.2   16.615   8.944  9.12195417056240  11.9651746  157.7115 /T    2.1823   Sgr
 2020-Aug-13 00:00     19 56 53.56 -21 03 12.0   16.617   8.944  9.12899924491848  12.4307673  156.6821 /T    2.2775   Sgr
 2020-Aug-14 00:00     19 56 36.24 -21 04 03.1   16.619   8.944  9.13631218704593  12.8927432  155.6530 /T    2.3718   Sgr
 2020-Aug-15 00:00     19 56 19.12 -21 04 53.4   16.620   8.944  9.14389084780860  13.3508896  154.6242 /T    2.4653   Sgr
 2020-Aug-16 00:00     19 56 02.20 -21 05 43.0   16.622   8.944  9.15173294780174  13.8049667  153.5959 /T    2.5579   Sgr
 2020-Aug-17 00:00     19 55 45.50 -21 06 31.8   16.624   8.944  9.15983605944506  14.2547001  152.5681 /T    2.6496   Sgr
 2020-Aug-18 00:00     19 55 29.02 -21 07 19.8   16.626   8.944  9.16819758564233  14.6997773  151.5407 /T    2.7404   Sgr
 2020-Aug-19 00:00     19 55 12.77 -21 08 07.0   16.629   8.944  9.17681473875540  15.1398528  150.5139 /T    2.8301   Sgr
 2020-Aug-20 00:00     19 54 56.76 -21 08 53.4   16.631   8.944  9.18568452599945  15.5745654  149.4876 /T    2.9189   Sgr
 2020-Aug-21 00:00     19 54 40.99 -21 09 39.0   16.633   8.944  9.19480374800723  16.0035662  148.4620 /T    3.0067   Sgr
 2020-Aug-22 00:00     19 54 25.48 -21 10 23.7   16.635   8.944  9.20416901484479  16.4265492  147.4370 /T    3.0933   Sgr
 2020-Aug-23 00:00     19 54 10.24 -21 11 07.5   16.638   8.944  9.21377677854161  16.8432761  146.4128 /T    3.1789   Sgr
 2020-Aug-24 00:00     19 53 55.27 -21 11 50.4   16.640   8.944  9.22362337579574  17.2535862  145.3893 /T    3.2634   Sgr
 2020-Aug-25 00:00     19 53 40.57 -21 12 32.4   16.643   8.944  9.23370507196242  17.6573911  144.3666 /T    3.3467   Sgr
 2020-Aug-26 00:00     19 53 26.15 -21 13 13.6   16.645   8.944  9.24401809876315  18.0546597  143.3447 /T    3.4288   Sgr
 2020-Aug-27 00:00     19 53 12.03 -21 13 53.8   16.648   8.944  9.25455868181452  18.4453990  142.3236 /T    3.5097   Sgr
 2020-Aug-28 00:00     19 52 58.20 -21 14 33.0   16.650   8.944  9.26532305771563  18.8296375  141.3033 /T    3.5894   Sgr
 2020-Aug-29 00:00     19 52 44.68 -21 15 11.3   16.653   8.944  9.27630748245250  19.2074118  140.2839 /T    3.6678   Sgr
 2020-Aug-30 00:00     19 52 31.46 -21 15 48.7   16.656   8.944  9.28750823304369  19.5787569  139.2654 /T    3.7450   Sgr
 2020-Aug-31 00:00     19 52 18.55 -21 16 25.1   16.658   8.944  9.29892160451076  19.9436991  138.2476 /T    3.8209   Sgr
 2020-Sep-01 00:00     19 52 05.96 -21 17 00.5   16.661   8.944  9.31054390338006  20.3022512  137.2308 /T    3.8955   Sgr
 2020-Sep-02 00:00     19 51 53.70 -21 17 34.9   16.664   8.944  9.32237143861999  20.6544085  136.2148 /T    3.9688   Sgr
 2020-Sep-03 00:00     19 51 41.76 -21 18 08.3   16.667   8.944  9.33440051087011  21.0001465  135.1996 /T    4.0407   Sgr
 2020-Sep-04 00:00     19 51 30.16 -21 18 40.7   16.670   8.944  9.34662740092615  21.3394210  134.1853 /T    4.1113   Sgr
 2020-Sep-05 00:00     19 51 18.90 -21 19 12.1   16.673   8.944  9.35904835850305  21.6721691  133.1718 /T    4.1805   Sgr
 2020-Sep-06 00:00     19 51 07.98 -21 19 42.5   16.675   8.944  9.37165959216782  21.9983117  132.1592 /T    4.2483   Sgr
 2020-Sep-07 00:00     19 50 57.41 -21 20 11.9   16.678   8.944  9.38445726099846  22.3177570  131.1474 /T    4.3146   Sgr
 2020-Sep-08 00:00     19 50 47.19 -21 20 40.2   16.682   8.944  9.39743746804750  22.6304032  130.1365 /T    4.3796   Sgr
 2020-Sep-09 00:00     19 50 37.33 -21 21 07.5   16.685   8.944  9.41059625517673  22.9361404  129.1264 /T    4.4431   Sgr
 2020-Sep-10 00:00     19 50 27.83 -21 21 33.7   16.688   8.944  9.42392959836351  23.2348501  128.1173 /T    4.5051   Sgr
 2020-Sep-11 00:00     19 50 18.70 -21 21 58.9   16.691   8.944  9.43743340221806  23.5264030  127.1090 /T    4.5656   Sgr
 2020-Sep-12 00:00     19 50 09.94 -21 22 23.1   16.694   8.944  9.45110349225841  23.8106535  126.1015 /T    4.6246   Sgr
 2020-Sep-13 00:00     19 50 01.56 -21 22 46.1   16.697   8.944  9.46493560359727  24.0874328  125.0950 /T    4.6821   Sgr
 2020-Sep-14 00:00     19 49 53.55 -21 23 08.1   16.700   8.944  9.47892536535673  24.3565416  124.0894 /T    4.7381   Sgr
 2020-Sep-15 00:00     19 49 45.93 -21 23 29.1   16.704   8.944  9.49306828147011  24.6177455  123.0848 /T    4.7925   Sgr
 2020-Sep-16 00:00     19 49 38.70 -21 23 48.9   16.707   8.944  9.50735971132949  24.8707803  122.0811 /T    4.8454   Sgr
 2020-Sep-17 00:00     19 49 31.86 -21 24 07.7   16.710   8.944  9.52179485679941  25.1153687  121.0784 /T    4.8967   Sgr
 2020-Sep-18 00:00     19 49 25.42 -21 24 25.3   16.714   8.944  9.53636876335508  25.3512525  120.0767 /T    4.9464   Sgr
 2020-Sep-19 00:00     19 49 19.37 -21 24 41.9   16.717   8.944  9.55107634157872  25.5782289  119.0761 /T    4.9945   Sgr
 2020-Sep-20 00:00     19 49 13.73 -21 24 57.4   16.720   8.944  9.56591240846177  25.7961799  118.0766 /T    5.0410   Sgr
 2020-Sep-21 00:00     19 49 08.49 -21 25 11.7   16.724   8.944  9.58087174024055  26.0050820  117.0782 /T    5.0859   Sgr
 2020-Sep-22 00:00     19 49 03.66 -21 25 25.0   16.727   8.944  9.59594912402071  26.2049928  116.0809 /T    5.1291   Sgr
 2020-Sep-23 00:00     19 48 59.24 -21 25 37.1   16.731   8.944  9.61113939731700  26.3960241  115.0848 /T    5.1708   Sgr
 2020-Sep-24 00:00     19 48 55.22 -21 25 48.2   16.734   8.944  9.62643747089532  26.5783133  114.0898 /T    5.2107   Sgr
 2020-Sep-25 00:00     19 48 51.62 -21 25 58.1   16.738   8.944  9.64183833650170  26.7520006  113.0960 /T    5.2491   Sgr
 2020-Sep-26 00:00     19 48 48.43 -21 26 06.9   16.741   8.944  9.65733706426423  26.9172156  112.1033 /T    5.2858   Sgr
